[{"OBJECT_NAME":"CUBESX-HSE 3 (RS42S)","OBJECT_ID":"2023-091N","EPOCH":"2026-03-09T22:57:25.321248","MEAN_MOTION":15.286147,"ECCENTRICITY":0.00127191,"INCLINATION":97.5203,"RA_OF_ASC_NODE":133.4295,"ARG_OF_PERICENTER":86.5376,"MEAN_ANOMALY":273.7318,"EPHEMERIS_TYPE":0,"CLASSIFICATION_TYPE":"U","NORAD_CAT_ID":57178,"ELEMENT_SET_NO":999,"REV_AT_EPOCH":14925,"BSTAR":0.00059055694,"MEAN_MOTION_DOT":0.00016417,"MEAN_MOTION_DDOT":0},{"OBJECT_NAME":"STARLINK-34731","OBJECT_ID":"2025-161Q","EPOCH":"2026-03-09T21:54:52.015392","MEAN_MOTION":15.30197953,"ECCENTRICITY":0.00024547,"INCLINATION":53.1578,"RA_OF_ASC_NODE":293.196,"ARG_OF_PERICENTER":179.6153,"MEAN_ANOMALY":180.485,"EPHEMERIS_TYPE":0,"CLASSIFICATION_TYPE":"U","NORAD_CAT_ID":65029,"ELEMENT_SET_NO":999,"REV_AT_EPOCH":3536,"BSTAR":0.00084822024,"MEAN_MOTION_DOT":0.00024846,"MEAN_MOTION_DDOT":0}]
